start=new Date('2022-12-25T00:00:00.000Z').valueOf();
sats=[{"GP_ID":"221379709","EPHEMERIS_TYPE":"0","OBJECT_ID":"2021-059A","SITE":"AFETR","ELEMENT_SET_NO":"999","CLASSIFICATION_TYPE":"U","TLE_LINE2":"2 48879  97.5130 123.7468 0001425  98.9933 261.1454 15.02893071 83120","OBJECT_NAME":"STARLINK-3003","ARG_OF_PERICENTER":"98.9933","REF_FRAME":"TEME","ECCENTRICITY":"0.00014250","OBJECT_TYPE":"PAYLOAD","LAUNCH_DATE":"2021-06-30","NORAD_CAT_ID":"48879","PERIOD":"95.815","MEAN_ELEMENT_THEORY":"SGP4","TLE_LINE1":"1 48879U 21059A   22358.88471244  .00002867  00000-0  21804-3 0  9992","MEAN_MOTION":"15.02893071","SEMIMAJOR_AXIS":"6936.118","MEAN_ANOMALY":"261.1454","CENTER_NAME":"EARTH","RCS_SIZE":"LARGE","APOAPSIS":"558.971","MEAN_MOTION_DDOT":"0.0000000000000","TIME_SYSTEM":"UTC","RA_OF_ASC_NODE":"123.7468","REV_AT_EPOCH":"8312","INCLINATION":"97.5130","EPOCH":"2022-12-24T21:13:59.154816","PERIAPSIS":"556.994","BSTAR":"0.00021804000000","DECAY_DATE":null,"MEAN_MOTION_DOT":"0.00002867","COUNTRY_CODE":"US","FILE":"3721442"},{"MEAN_ELEMENT_THEORY":"SGP4","PERIOD":"95.815","NORAD_CAT_ID":"48880","LAUNCH_DATE":"2021-06-30","MEAN_MOTION":"15.02892483","TLE_LINE1":"1 48880U 21059B   22358.88299687  .00005604  00000-0  42195-3 0  9991","SITE":"AFETR","ELEMENT_SET_NO":"999","OBJECT_ID":"2021-059B","EPHEMERIS_TYPE":"0","GP_ID":"221378457","OBJECT_TYPE":"PAYLOAD","ECCENTRICITY":"0.00018570","ARG_OF_PERICENTER":"45.5672","REF_FRAME":"TEME","TLE_LINE2":"2 48880  97.5143 123.7457 0001857  45.5672 314.5705 15.02892483 83129","OBJECT_NAME":"STARLINK-3004","CLASSIFICATION_TYPE":"U","EPOCH":"2022-12-24T21:11:30.929568","INCLINATION":"97.5143","REV_AT_EPOCH":"8312","FILE":"3721442","COUNTRY_CODE":"US","MEAN_MOTION_DOT":"0.00005604","DECAY_DATE":null,"BSTAR":"0.00042195000000","PERIAPSIS":"556.696","RA_OF_ASC_NODE":"123.7457","TIME_SYSTEM":"UTC","MEAN_MOTION_DDOT":"0.0000000000000","APOAPSIS":"559.273","RCS_SIZE":"LARGE","SEMIMAJOR_AXIS":"6936.119","CENTER_NAME":"EARTH","MEAN_ANOMALY":"314.5705"},{"MEAN_MOTION_DDOT":"0.0000000000000","TIME_SYSTEM":"UTC","RA_OF_ASC_NODE":"123.7706","SEMIMAJOR_AXIS":"6936.146","MEAN_ANOMALY":"322.8982","CENTER_NAME":"EARTH","RCS_SIZE":"LARGE","APOAPSIS":"559.358","MEAN_MOTION_DOT":"-0.00000582","COUNTRY_CODE":"US","FILE":"3721442","PERIAPSIS":"556.664","DECAY_DATE":null,"BSTAR":"-0.00003912500000","INCLINATION":"97.5128","EPOCH":"2022-12-24T21:05:22.570080","REV_AT_EPOCH":"8312","ECCENTRICITY":"0.00019420","OBJECT_TYPE":"PAYLOAD","CLASSIFICATION_TYPE":"U","TLE_LINE2":"2 48881  97.5128 123.7706 0001942  37.2378 322.8982 15.02883919 83129","OBJECT_NAME":"STARLINK-3005","ARG_OF_PERICENTER":"37.2378","REF_FRAME":"TEME","OBJECT_ID":"2021-059C","EPHEMERIS_TYPE":"0","ELEMENT_SET_NO":"999","SITE":"AFETR","GP_ID":"221378707","MEAN_MOTION":"15.02883919","TLE_LINE1":"1 48881U 21059C   22358.87873345 -.00000582  00000-0 -39125-4 0  9992","PERIOD":"95.816","MEAN_ELEMENT_THEORY":"SGP4","NORAD_CAT_ID":"48881","LAUNCH_DATE":"2021-06-30"},{"APOAPSIS":"574.246","RCS_SIZE":"LARGE","SEMIMAJOR_AXIS":"6950.190","MEAN_ANOMALY":"87.4263","CENTER_NAME":"EARTH","RA_OF_ASC_NODE":"326.3674","MEAN_MOTION_DDOT":"0.0000000000000","TIME_SYSTEM":"UTC","PERIAPSIS":"569.863","DECAY_DATE":null,"BSTAR":"0.00014563000000","COUNTRY_CODE":"US","FILE":"3721442","MEAN_MOTION_DOT":"0.00001645","REV_AT_EPOCH":"7159","INCLINATION":"70.0020","EPOCH":"2022-12-24T22:10:40.766880","TLE_LINE2":"2 49131  70.0020 326.3674 0003153 272.6535  87.4263 14.98330977 71595","OBJECT_NAME":"STARLINK-3096","REF_FRAME":"TEME","ARG_OF_PERICENTER":"272.6535","CLASSIFICATION_TYPE":"U","OBJECT_TYPE":"PAYLOAD","ECCENTRICITY":"0.00031530","GP_ID":"221378987","SITE":"AFWTR","ELEMENT_SET_NO":"999","OBJECT_ID":"2021-082B","EPHEMERIS_TYPE":"0","TLE_LINE1":"1 49131U 21082B   22358.92408295  .00001645  00000-0  14563-3 0  9998","MEAN_MOTION":"14.98330977","LAUNCH_DATE":"2021-09-14","NORAD_CAT_ID":"49131","MEAN_ELEMENT_THEORY":"SGP4","PERIOD":"96.107"},{"TLE_LINE1":"1 49132U 21082C   22358.75658860  .00000954  00000-0  87705-4 0  9996","MEAN_MOTION":"14.98329000","LAUNCH_DATE":"2021-09-14","NORAD_CAT_ID":"49132","PERIOD":"96.107","MEAN_ELEMENT_THEORY":"SGP4","CLASSIFICATION_TYPE":"U","REF_FRAME":"TEME","ARG_OF_PERICENTER":"260.0179","TLE_LINE2":"2 49132  70.0007   6.7885 0003139 260.0179 100.0625 14.98329000 70580","OBJECT_NAME":"STARLINK-3090","ECCENTRICITY":"0.00031390","OBJECT_TYPE":"PAYLOAD","GP_ID":"221379737","EPHEMERIS_TYPE":"0","OBJECT_ID":"2021-082C","SITE":"AFWTR","ELEMENT_SET_NO":"999","DECAY_DATE":null,"BSTAR":"0.00008770500000","PERIAPSIS":"569.879","MEAN_MOTION_DOT":"0.00000954","FILE":"3721442","COUNTRY_CODE":"US","REV_AT_EPOCH":"7058","EPOCH":"2022-12-24T18:09:29.255040","INCLINATION":"70.0007","SEMIMAJOR_AXIS":"6950.196","MEAN_ANOMALY":"100.0625","CENTER_NAME":"EARTH","RCS_SIZE":"LARGE","APOAPSIS":"574.243","TIME_SYSTEM":"UTC","MEAN_MOTION_DDOT":"0.0000000000000","RA_OF_ASC_NODE":"6.7885"},{"REV_AT_EPOCH":"7058","EPOCH":"2022-12-24T18:02:36.363264","INCLINATION":"69.9991","BSTAR":"0.00012566000000","DECAY_DATE":null,"PERIAPSIS":"569.664","MEAN_MOTION_DOT":"0.00001407","FILE":"3721442","COUNTRY_CODE":"US","SEMIMAJOR_AXIS":"6950.153","CENTER_NAME":"EARTH","MEAN_ANOMALY":"99.2525","RCS_SIZE":"LARGE","APOAPSIS":"574.373","TIME_SYSTEM":"UTC","MEAN_MOTION_DDOT":"0.0000000000000","RA_OF_ASC_NODE":"6.7976","NORAD_CAT_ID":"49133","LAUNCH_DATE":"2021-09-14","PERIOD":"96.106","MEAN_ELEMENT_THEORY":"SGP4","TLE_LINE1":"1 49133U 21082D   22358.75180976  .00001407  00000-0  12566-3 0  9991","MEAN_MOTION":"14.98342740","GP_ID":"221378485","EPHEMERIS_TYPE":"0","OBJECT_ID":"2021-082D","SITE":"AFWTR","ELEMENT_SET_NO":"999","CLASSIFICATION_TYPE":"U","REF_FRAME":"TEME","ARG_OF_PERICENTER":"260.8251","OBJECT_NAME":"STARLINK-3077","TLE_LINE2":"2 49133  69.9991   6.7976 0003387 260.8251  99.2525 14.98342740 70589","ECCENTRICITY":"0.00033870","OBJECT_TYPE":"PAYLOAD"},{"TIME_SYSTEM":"UTC","MEAN_MOTION_DDOT":"0.0000000000000","RA_OF_ASC_NODE":"6.8276","MEAN_ANOMALY":"89.8123","SEMIMAJOR_AXIS":"6950.138","CENTER_NAME":"EARTH","APOAPSIS":"574.103","RCS_SIZE":"LARGE","MEAN_MOTION_DOT":"0.00008392","FILE":"3721442","COUNTRY_CODE":"US","DECAY_DATE":null,"BSTAR":"0.00070996000000","PERIAPSIS":"569.904","EPOCH":"2022-12-24T17:55:45.045696","INCLINATION":"70.0021","REV_AT_EPOCH":"7178","ECCENTRICITY":"0.00030210","OBJECT_TYPE":"PAYLOAD","CLASSIFICATION_TYPE":"U","REF_FRAME":"TEME","ARG_OF_PERICENTER":"270.2690","TLE_LINE2":"2 49134  70.0021   6.8276 0003021 270.2690  89.8123 14.98347670 71787","OBJECT_NAME":"STARLINK-3078","EPHEMERIS_TYPE":"0","OBJECT_ID":"2021-082E","SITE":"AFWTR","ELEMENT_SET_NO":"999","GP_ID":"221378735","MEAN_MOTION":"14.98347670","TLE_LINE1":"1 49134U 21082E   22358.74704914  .00008392  00000-0  70996-3 0  9996","PERIOD":"96.106","MEAN_ELEMENT_THEORY":"SGP4","NORAD_CAT_ID":"49134","LAUNCH_DATE":"2021-09-14"},{"MEAN_MOTION_DOT":"-0.00000600","FILE":"3721442","COUNTRY_CODE":"US","DECAY_DATE":null,"BSTAR":"-0.00004249300000","PERIAPSIS":"569.963","EPOCH":"2022-12-24T15:42:13.975488","INCLINATION":"70.0013","REV_AT_EPOCH":"7156","TIME_SYSTEM":"UTC","MEAN_MOTION_DDOT":"0.0000000000000","RA_OF_ASC_NODE":"327.0584","CENTER_NAME":"EARTH","SEMIMAJOR_AXIS":"6950.203","MEAN_ANOMALY":"84.6448","APOAPSIS":"574.174","RCS_SIZE":"LARGE","MEAN_MOTION":"14.98326593","TLE_LINE1":"1 49135U 21082F   22358.65432842 -.00000600  00000-0 -42493-4 0  9993","PERIOD":"96.107","MEAN_ELEMENT_THEORY":"SGP4","NORAD_CAT_ID":"49135","LAUNCH_DATE":"2021-09-14","ECCENTRICITY":"0.00030290","OBJECT_TYPE":"PAYLOAD","CLASSIFICATION_TYPE":"U","REF_FRAME":"TEME","ARG_OF_PERICENTER":"275.4365","OBJECT_NAME":"STARLINK-3073","TLE_LINE2":"2 49135  70.0013 327.0584 0003029 275.4365  84.6448 14.98326593 71563","EPHEMERIS_TYPE":"0","OBJECT_ID":"2021-082F","ELEMENT_SET_NO":"999","SITE":"AFWTR","GP_ID":"221379487"},{"SEMIMAJOR_AXIS":"6950.197","MEAN_ANOMALY":"102.3863","CENTER_NAME":"EARTH","APOAPSIS":"574.385","RCS_SIZE":"LARGE","TIME_SYSTEM":"UTC","MEAN_MOTION_DDOT":"0.0000000000000","RA_OF_ASC_NODE":"346.8900","REV_AT_EPOCH":"7108","EPOCH":"2022-12-24T17:09:35.482464","INCLINATION":"69.9995","DECAY_DATE":null,"BSTAR":"0.00009565200000","PERIAPSIS":"569.740","MEAN_MOTION_DOT":"0.00001048","FILE":"3721442","COUNTRY_CODE":"US","GP_ID":"221379238","OBJECT_ID":"2021-082G","EPHEMERIS_TYPE":"0","ELEMENT_SET_NO":"999","SITE":"AFWTR","CLASSIFICATION_TYPE":"U","ARG_OF_PERICENTER":"257.6922","REF_FRAME":"TEME","TLE_LINE2":"2 49136  69.9995 346.8900 0003342 257.6922 102.3863 14.98328583 71087","OBJECT_NAME":"STARLINK-3084","ECCENTRICITY":"0.00033420","OBJECT_TYPE":"PAYLOAD","NORAD_CAT_ID":"49136","LAUNCH_DATE":"2021-09-14","PERIOD":"96.107","MEAN_ELEMENT_THEORY":"SGP4","TLE_LINE1":"1 49136U 21082G   22358.71499401  .00001048  00000-0  95652-4 0  9995","MEAN_MOTION":"14.98328583"},{"EPOCH":"2022-12-24T17:02:43.489248","INCLINATION":"70.0002","REV_AT_EPOCH":"7107","MEAN_MOTION_DOT":"0.00003730","FILE":"3721442","COUNTRY_CODE":"US","DECAY_DATE":null,"BSTAR":"0.00032027000000","PERIAPSIS":"569.864","TIME_SYSTEM":"UTC","MEAN_MOTION_DDOT":"0.0000000000000","RA_OF_ASC_NODE":"346.9165","MEAN_ANOMALY":"83.1590","SEMIMAJOR_AXIS":"6950.208","CENTER_NAME":"EARTH","APOAPSIS":"574.282","RCS_SIZE":"LARGE","PERIOD":"96.107","MEAN_ELEMENT_THEORY":"SGP4","LAUNCH_DATE":"2021-09-14","NORAD_CAT_ID":"49137","MEAN_MOTION":"14.98325076","TLE_LINE1":"1 49137U 21082H   22358.71022557  .00003730  00000-0  32027-3 0  9996","OBJECT_ID":"2021-082H","EPHEMERIS_TYPE":"0","ELEMENT_SET_NO":"999","SITE":"AFWTR","GP_ID":"221377986","ECCENTRICITY":"0.00031780","OBJECT_TYPE":"PAYLOAD","CLASSIFICATION_TYPE":"U","REF_FRAME":"TEME","ARG_OF_PERICENTER":"276.9207","TLE_LINE2":"2 49137  70.0002 346.9165 0003178 276.9207  83.1590 14.98325076 71077","OBJECT_NAME":"STARLINK-3055"}];
